{"type": "FeatureCollection", "features": [ {"type": "Feature", "properties": {"norad_id": 17070, "name": "POLAR BEAR", "group": "nnss", "lat": 17.357855974515868, "lon": -176.4653143549186, "alt_km": 973.7725474541339, "timestamp": "2025-12-21T16:47:55.006809+00:00", "meta": {"OBJECT_NAME": "POLAR BEAR", "OBJECT_ID": "1986-088A", "EPOCH": "2025-12-21T11:36:57.542976", "MEAN_MOTION": 13.75252543, "ECCENTRICITY": 0.0041288, "INCLINATION": 89.617, "RA_OF_ASC_NODE": 183.4236, "ARG_OF_PERICENTER": 94.0716, "MEAN_ANOMALY": 295.3913, "EPHEMERIS_TYPE": 0, "CLASSIFICATION_TYPE": "U", "NORAD_CAT_ID": 17070, "ELEMENT_SET_NO": 999, "REV_AT_EPOCH": 96099, "BSTAR": 9.0153e-05, "MEAN_MOTION_DOT": 9.9e-07, "MEAN_MOTION_DDOT": 0}, "tle": {"line1": "1 17070U 86088A   25355.48399934  .00000099  00000+0  90153-4 0  9993", "line2": "2 17070  89.6170 183.4236 0041288  94.0716 295.3913 13.75252543960997"}}, "geometry": {"type": "Point", "coordinates": [-176.4653143549186, 17.357855974515868]}}, {"type": "Feature", "properties": {"norad_id": 18361, "name": "OSCAR 27", "group": "nnss", "lat": 17.828161014924266, "lon": 79.48715839250015, "alt_km": 1168.8495558231416, "timestamp": "2025-12-21T16:47:55.006822+00:00", "meta": {"OBJECT_NAME": "OSCAR 27", "OBJECT_ID": "1987-080A", "EPOCH": "2025-12-21T11:21:05.959296", "MEAN_MOTION": 13.44908381, "ECCENTRICITY": 0.0103631, "INCLINATION": 90.3739, "RA_OF_ASC_NODE": 79.599, "ARG_OF_PERICENTER": 198.6192, "MEAN_ANOMALY": 161.1154, "EPHEMERIS_TYPE": 0, "CLASSIFICATION_TYPE": "U", "NORAD_CAT_ID": 18361, "ELEMENT_SET_NO": 999, "REV_AT_EPOCH": 87674, "BSTAR": 0.00016373, "MEAN_MOTION_DOT": 1.07e-06, "MEAN_MOTION_DDOT": 0}, "tle": {"line1": "1 18361U 87080A   25355.47298564  .00000107  00000+0  16373-3 0  9997", "line2": "2 18361  90.3739  79.5990 0103631 198.6192 161.1154 13.44908381876743"}}, "geometry": {"type": "Point", "coordinates": [79.48715839250015, 17.828161014924266]}}, {"type": "Feature", "properties": {"norad_id": 18362, "name": "OSCAR 29", "group": "nnss", "lat": 15.770031800310049, "lon": 79.96110138707905, "alt_km": 1163.8515243319134, "timestamp": "2025-12-21T16:47:55.006833+00:00", "meta": {"OBJECT_NAME": "OSCAR 29", "OBJECT_ID": "1987-080B", "EPOCH": "2025-12-21T11:25:06.788064", "MEAN_MOTION": 13.44449927, "ECCENTRICITY": 0.0104471, "INCLINATION": 90.3751, "RA_OF_ASC_NODE": 80.0587, "ARG_OF_PERICENTER": 221.8489, "MEAN_ANOMALY": 149.171, "EPHEMERIS_TYPE": 0, "CLASSIFICATION_TYPE": "U", "NORAD_CAT_ID": 18362, "ELEMENT_SET_NO": 999, "REV_AT_EPOCH": 87627, "BSTAR": 0.00015543, "MEAN_MOTION_DOT": 1.01e-06, "MEAN_MOTION_DDOT": 0}, "tle": {"line1": "1 18362U 87080B   25355.47577301  .00000101  00000+0  15543-3 0  9999", "line2": "2 18362  90.3751  80.0587 0104471 221.8489 149.1710 13.44449927876276"}}, "geometry": {"type": "Point", "coordinates": [79.96110138707905, 15.770031800310049]}}, {"type": "Feature", "properties": {"norad_id": 19070, "name": "OSCAR 23", "group": "nnss", "lat": -26.059268852826957, "lon": 16.826807535594572, "alt_km": 1304.0832973748938, "timestamp": "2025-12-21T16:47:55.006844+00:00", "meta": {"OBJECT_NAME": "OSCAR 23", "OBJECT_ID": "1988-033A", "EPOCH": "2025-12-21T12:06:05.435712", "MEAN_MOTION": 13.27788556, "ECCENTRICITY": 0.0190243, "INCLINATION": 90.3203, "RA_OF_ASC_NODE": 16.664, "ARG_OF_PERICENTER": 155.5953, "MEAN_ANOMALY": 323.4425, "EPHEMERIS_TYPE": 0, "CLASSIFICATION_TYPE": "U", "NORAD_CAT_ID": 19070, "ELEMENT_SET_NO": 999, "REV_AT_EPOCH": 82369, "BSTAR": 0.00011932, "MEAN_MOTION_DOT": 6.9e-07, "MEAN_MOTION_DDOT": 0}, "tle": {"line1": "1 19070U 88033A   25355.50422958  .00000069  00000+0  11932-3 0  9997", "line2": "2 19070  90.3203  16.6640 0190243 155.5953 323.4425 13.27788556823694"}}, "geometry": {"type": "Point", "coordinates": [16.826807535594572, -26.059268852826957]}}, {"type": "Feature", "properties": {"norad_id": 19071, "name": "OSCAR 32", "group": "nnss", "lat": 87.92796005951043, "lon": 7.891783720695085, "alt_km": 1061.587378498678, "timestamp": "2025-12-21T16:47:55.006855+00:00", "meta": {"OBJECT_NAME": "OSCAR 32", "OBJECT_ID": "1988-033B", "EPOCH": "2025-12-21T11:31:37.939872", "MEAN_MOTION": 13.27955321, "ECCENTRICITY": 0.018901, "INCLINATION": 90.3209, "RA_OF_ASC_NODE": 16.7957, "ARG_OF_PERICENTER": 142.5762, "MEAN_ANOMALY": 337.7006, "EPHEMERIS_TYPE": 0, "CLASSIFICATION_TYPE": "U", "NORAD_CAT_ID": 19071, "ELEMENT_SET_NO": 999, "REV_AT_EPOCH": 82381, "BSTAR": 0.00015318, "MEAN_MOTION_DOT": 8.6e-07, "MEAN_MOTION_DDOT": 0}, "tle": {"line1": "1 19071U 88033B   25355.48030023  .00000086  00000+0  15318-3 0  9994", "line2": "2 19071  90.3209  16.7957 0189010 142.5762 337.7006 13.27955321823810"}}, "geometry": {"type": "Point", "coordinates": [7.891783720695085, 87.92796005951043]}}, {"type": "Feature", "properties": {"norad_id": 19223, "name": "NOVA 2", "group": "nnss", "lat": 54.41037473652536, "lon": -101.75693626611475, "alt_km": 1183.8818071301375, "timestamp": "2025-12-21T16:47:55.006865+00:00", "meta": {"OBJECT_NAME": "NOVA 2", "OBJECT_ID": "1988-052A", "EPOCH": "2025-12-21T12:35:31.602048", "MEAN_MOTION": 13.22936749, "ECCENTRICITY": 0.0029851, "INCLINATION": 89.9869, "RA_OF_ASC_NODE": 78.2616, "ARG_OF_PERICENTER": 352.6219, "MEAN_ANOMALY": 18.401, "EPHEMERIS_TYPE": 0, "CLASSIFICATION_TYPE": "U", "NORAD_CAT_ID": 19223, "ELEMENT_SET_NO": 999, "REV_AT_EPOCH": 81064, "BSTAR": 0.00012002, "MEAN_MOTION_DOT": 5.9e-07, "MEAN_MOTION_DDOT": 0}, "tle": {"line1": "1 19223U 88052A   25355.52467132  .00000059  00000+0  12002-3 0  9991", "line2": "2 19223  89.9869  78.2616 0029851 352.6219  18.4010 13.22936749810640"}}, "geometry": {"type": "Point", "coordinates": [-101.75693626611475, 54.41037473652536]}}, {"type": "Feature", "properties": {"norad_id": 19419, "name": "OSCAR 25", "group": "nnss", "lat": 65.33883329764771, "lon": -159.65264117828477, "alt_km": 1111.3429209812302, "timestamp": "2025-12-21T16:47:55.006875+00:00", "meta": {"OBJECT_NAME": "OSCAR 25", "OBJECT_ID": "1988-074A", "EPOCH": "2025-12-21T02:00:29.261664", "MEAN_MOTION": 13.4262484, "ECCENTRICITY": 0.00949094, "INCLINATION": 90.0339, "RA_OF_ASC_NODE": 20.2714, "ARG_OF_PERICENTER": 221.6823, "MEAN_ANOMALY": 157.0344, "EPHEMERIS_TYPE": 0, "CLASSIFICATION_TYPE": "U", "NORAD_CAT_ID": 19419, "ELEMENT_SET_NO": 999, "REV_AT_EPOCH": 82752, "BSTAR": 0.00013959585, "MEAN_MOTION_DOT": 9e-07, "MEAN_MOTION_DDOT": 0}, "tle": {"line1": "1 19419U 88074A   25355.08367201  .00000090  00000+0  13960-3 0  9998", "line2": "2 19419  90.0339  20.2714 0094909 221.6823 157.0344 13.42624840827523"}}, "geometry": {"type": "Point", "coordinates": [-159.65264117828477, 65.33883329764771]}}, {"type": "Feature", "properties": {"norad_id": 19420, "name": "OSCAR 31", "group": "nnss", "lat": -1.3035050892532474, "lon": 20.62550450459408, "alt_km": 1159.550660969313, "timestamp": "2025-12-21T16:47:55.006885+00:00", "meta": {"OBJECT_NAME": "OSCAR 31", "OBJECT_ID": "1988-074B", "EPOCH": "2025-12-21T12:02:25.653984", "MEAN_MOTION": 13.42586133, "ECCENTRICITY": 0.0093308, "INCLINATION": 90.0354, "RA_OF_ASC_NODE": 20.624, "ARG_OF_PERICENTER": 214.619, "MEAN_ANOMALY": 265.9026, "EPHEMERIS_TYPE": 0, "CLASSIFICATION_TYPE": "U", "NORAD_CAT_ID": 19420, "ELEMENT_SET_NO": 999, "REV_AT_EPOCH": 82768, "BSTAR": 0.00014157, "MEAN_MOTION_DOT": 9.1e-07, "MEAN_MOTION_DDOT": 0}, "tle": {"line1": "1 19420U 88074B   25355.50168581  .00000091  00000+0  14157-3 0  9997", "line2": "2 19420  90.0354  20.6240 0093308 214.6190 265.9026 13.42586133827686"}}, "geometry": {"type": "Point", "coordinates": [20.62550450459408, -1.3035050892532474]}}]}